CCSDS_OMM_VERS = 2.0
CREATION_DATE  = 
ORIGINATOR     = 

OBJECT_NAME    = TITAN 4B R/B
OBJECT_ID      = 2000-047B
CENTER_NAME    = EARTH
REF_FRAME      = TEME
TIME_SYSTEM    = UTC
MEAN_ELEMENT_THEORY = SGP/SGP4

EPOCH          = 2026-03-07T23:22:19.421760
MEAN_MOTION    = 15.09542594
ECCENTRICITY   = .0038446
INCLINATION    = 67.9897
RA_OF_ASC_NODE = 45.3349
ARG_OF_PERICENTER = 37.4461
MEAN_ANOMALY   = 322.9355

EPHEMERIS_TYPE = 0
CLASSIFICATION_TYPE = U
NORAD_CAT_ID   = 26474
ELEMENT_SET_NO = 999
REV_AT_EPOCH   = 39265
BSTAR          = .41714E-3
MEAN_MOTION_DOT = .6696E-4
MEAN_MOTION_DDOT = 0

CCSDS_OMM_VERS = 2.0
CREATION_DATE  = 
ORIGINATOR     = 

OBJECT_NAME    = ENVISAT
OBJECT_ID      = 2002-009A
CENTER_NAME    = EARTH
REF_FRAME      = TEME
TIME_SYSTEM    = UTC
MEAN_ELEMENT_THEORY = SGP/SGP4

EPOCH          = 2026-03-07T20:45:57.767616
MEAN_MOTION    = 14.39036200
ECCENTRICITY   = .00013445
INCLINATION    = 98.3727
RA_OF_ASC_NODE = 20.5060
ARG_OF_PERICENTER = 83.4028
MEAN_ANOMALY   = 293.7966

EPHEMERIS_TYPE = 0
CLASSIFICATION_TYPE = U
NORAD_CAT_ID   = 27386
ELEMENT_SET_NO = 999
REV_AT_EPOCH   = 25891
BSTAR          = .78922014E-4
MEAN_MOTION_DOT = .201E-5
MEAN_MOTION_DDOT = 0

CCSDS_OMM_VERS = 2.0
CREATION_DATE  = 
ORIGINATOR     = 

OBJECT_NAME    = IDEFIX & ARIANE 42P R/B
OBJECT_ID      = 2002-021B
CENTER_NAME    = EARTH
REF_FRAME      = TEME
TIME_SYSTEM    = UTC
MEAN_ELEMENT_THEORY = SGP/SGP4

EPOCH          = 2026-03-07T17:56:55.438368
MEAN_MOTION    = 14.31024715
ECCENTRICITY   = .00114587
INCLINATION    = 98.5867
RA_OF_ASC_NODE = 5.3774
ARG_OF_PERICENTER = 187.9792
MEAN_ANOMALY   = 172.1210

EPHEMERIS_TYPE = 0
CLASSIFICATION_TYPE = U
NORAD_CAT_ID   = 27422
ELEMENT_SET_NO = 999
REV_AT_EPOCH   = 24374
BSTAR          = .17793858E-3
MEAN_MOTION_DOT = .425E-5
MEAN_MOTION_DDOT = 0

CCSDS_OMM_VERS = 2.0
CREATION_DATE  = 
ORIGINATOR     = 

OBJECT_NAME    = AQUA
OBJECT_ID      = 2002-022A
CENTER_NAME    = EARTH
REF_FRAME      = TEME
TIME_SYSTEM    = UTC
MEAN_ELEMENT_THEORY = SGP/SGP4

EPOCH          = 2026-03-08T01:03:41.158368
MEAN_MOTION    = 14.61973124
ECCENTRICITY   = .0000568
INCLINATION    = 98.4174
RA_OF_ASC_NODE = 34.3791
ARG_OF_PERICENTER = 72.8926
MEAN_ANOMALY   = 0.0734

EPHEMERIS_TYPE = 0
CLASSIFICATION_TYPE = U
NORAD_CAT_ID   = 27424
ELEMENT_SET_NO = 999
REV_AT_EPOCH   = 26849
BSTAR          = .32273E-3
MEAN_MOTION_DOT = .1568E-4
MEAN_MOTION_DDOT = 0

CCSDS_OMM_VERS = 2.0
CREATION_DATE  = 
ORIGINATOR     = 

OBJECT_NAME    = CZ-4B R/B
OBJECT_ID      = 2002-024C
CENTER_NAME    = EARTH
REF_FRAME      = TEME
TIME_SYSTEM    = UTC
MEAN_ELEMENT_THEORY = SGP/SGP4

EPOCH          = 2026-03-07T17:57:09.425664
MEAN_MOTION    = 14.14547345
ECCENTRICITY   = .00505759
INCLINATION    = 98.8842
RA_OF_ASC_NODE = 120.1644
ARG_OF_PERICENTER = 29.6951
MEAN_ANOMALY   = 80.1742

EPHEMERIS_TYPE = 0
CLASSIFICATION_TYPE = U
NORAD_CAT_ID   = 27432
ELEMENT_SET_NO = 999
REV_AT_EPOCH   = 22896
BSTAR          = .5097091E-4
MEAN_MOTION_DOT = .55E-6
MEAN_MOTION_DDOT = 0

CCSDS_OMM_VERS = 2.0
CREATION_DATE  = 
ORIGINATOR     = 

OBJECT_NAME    = MIDORI II (ADEOS-II)
OBJECT_ID      = 2002-056A
CENTER_NAME    = EARTH
REF_FRAME      = TEME
TIME_SYSTEM    = UTC
MEAN_ELEMENT_THEORY = SGP/SGP4

EPOCH          = 2026-03-07T18:33:56.295936
MEAN_MOTION    = 14.29283516
ECCENTRICITY   = .00016681
INCLINATION    = 98.7767
RA_OF_ASC_NODE = 25.2379
ARG_OF_PERICENTER = 45.6600
MEAN_ANOMALY   = 314.4718

EPHEMERIS_TYPE = 0
CLASSIFICATION_TYPE = U
NORAD_CAT_ID   = 27597
ELEMENT_SET_NO = 999
REV_AT_EPOCH   = 21002
BSTAR          = .19870894E-3
MEAN_MOTION_DOT = .46E-5
MEAN_MOTION_DDOT = 0

CCSDS_OMM_VERS = 2.0
CREATION_DATE  = 
ORIGINATOR     = 

OBJECT_NAME    = H-2A R/B
OBJECT_ID      = 2002-056E
CENTER_NAME    = EARTH
REF_FRAME      = TEME
TIME_SYSTEM    = UTC
MEAN_ELEMENT_THEORY = SGP/SGP4

EPOCH          = 2026-03-07T21:12:55.771776
MEAN_MOTION    = 14.33759464
ECCENTRICITY   = .00703965
INCLINATION    = 98.3200
RA_OF_ASC_NODE = 27.3183
ARG_OF_PERICENTER = 166.0224
MEAN_ANOMALY   = 209.2343

EPHEMERIS_TYPE = 0
CLASSIFICATION_TYPE = U
NORAD_CAT_ID   = 27601
ELEMENT_SET_NO = 999
REV_AT_EPOCH   = 21385
BSTAR          = .14889864E-3
MEAN_MOTION_DOT = .384E-5
MEAN_MOTION_DDOT = 0

CCSDS_OMM_VERS = 2.0
CREATION_DATE  = 
ORIGINATOR     = 

OBJECT_NAME    = CZ-4B R/B
OBJECT_ID      = 2003-049C
CENTER_NAME    = EARTH
REF_FRAME      = TEME
TIME_SYSTEM    = UTC
MEAN_ELEMENT_THEORY = SGP/SGP4

EPOCH          = 2026-03-07T17:35:39.046848
MEAN_MOTION    = 14.55018239
ECCENTRICITY   = .0047182
INCLINATION    = 98.6879
RA_OF_ASC_NODE = 61.5611
ARG_OF_PERICENTER = 237.0029
MEAN_ANOMALY   = 122.6628

EPHEMERIS_TYPE = 0
CLASSIFICATION_TYPE = U
NORAD_CAT_ID   = 28059
ELEMENT_SET_NO = 999
REV_AT_EPOCH   = 18631
BSTAR          = .14060359E-3
MEAN_MOTION_DOT = .563E-5
MEAN_MOTION_DDOT = 0

CCSDS_OMM_VERS = 2.0
CREATION_DATE  = 
ORIGINATOR     = 

OBJECT_NAME    = CZ-2C R/B
OBJECT_ID      = 2004-012C
CENTER_NAME    = EARTH
REF_FRAME      = TEME
TIME_SYSTEM    = UTC
MEAN_ELEMENT_THEORY = SGP/SGP4

EPOCH          = 2026-03-07T16:33:50.421024
MEAN_MOTION    = 15.64219059
ECCENTRICITY   = .00131106
INCLINATION    = 97.7229
RA_OF_ASC_NODE = 131.7938
ARG_OF_PERICENTER = 317.6721
MEAN_ANOMALY   = 42.3524

EPHEMERIS_TYPE = 0
CLASSIFICATION_TYPE = U
NORAD_CAT_ID   = 28222
ELEMENT_SET_NO = 999
REV_AT_EPOCH   = 20396
BSTAR          = .74152285E-3
MEAN_MOTION_DOT = .71166E-3
MEAN_MOTION_DDOT = 0

CCSDS_OMM_VERS = 2.0
CREATION_DATE  = 
ORIGINATOR     = 

OBJECT_NAME    = SL-16 R/B
OBJECT_ID      = 2004-021B
CENTER_NAME    = EARTH
REF_FRAME      = TEME
TIME_SYSTEM    = UTC
MEAN_ELEMENT_THEORY = SGP/SGP4

EPOCH          = 2026-03-07T18:14:16.220544
MEAN_MOTION    = 14.14598625
ECCENTRICITY   = .00039331
INCLINATION    = 70.9994
RA_OF_ASC_NODE = 236.5424
ARG_OF_PERICENTER = 12.7620
MEAN_ANOMALY   = 347.3601

EPHEMERIS_TYPE = 0
CLASSIFICATION_TYPE = U
NORAD_CAT_ID   = 28353
ELEMENT_SET_NO = 999
REV_AT_EPOCH   = 12256
BSTAR          = -.91753654E-4
MEAN_MOTION_DOT = -.224E-5
MEAN_MOTION_DDOT = 0

CCSDS_OMM_VERS = 2.0
CREATION_DATE  = 
ORIGINATOR     = 

OBJECT_NAME    = CZ-4B R/B
OBJECT_ID      = 2004-035C
CENTER_NAME    = EARTH
REF_FRAME      = TEME
TIME_SYSTEM    = UTC
MEAN_ELEMENT_THEORY = SGP/SGP4

EPOCH          = 2026-03-08T00:16:25.602816
MEAN_MOTION    = 15.29029263
ECCENTRICITY   = .0031177
INCLINATION    = 97.3499
RA_OF_ASC_NODE = 101.2738
ARG_OF_PERICENTER = 337.7569
MEAN_ANOMALY   = 22.2317

EPHEMERIS_TYPE = 0
CLASSIFICATION_TYPE = U
NORAD_CAT_ID   = 28415
ELEMENT_SET_NO = 999
REV_AT_EPOCH   = 17965
BSTAR          = .43703E-3
MEAN_MOTION_DOT = .1243E-3
MEAN_MOTION_DDOT = 0

CCSDS_OMM_VERS = 2.0
CREATION_DATE  = 
ORIGINATOR     = 

OBJECT_NAME    = CZ-2C R/B
OBJECT_ID      = 2004-046B
CENTER_NAME    = EARTH
REF_FRAME      = TEME
TIME_SYSTEM    = UTC
MEAN_ELEMENT_THEORY = SGP/SGP4

EPOCH          = 2026-03-08T00:18:49.756032
MEAN_MOTION    = 14.26991406
ECCENTRICITY   = .0139793
INCLINATION    = 98.1985
RA_OF_ASC_NODE = 342.1014
ARG_OF_PERICENTER = 159.3789
MEAN_ANOMALY   = 201.3112

EPHEMERIS_TYPE = 0
CLASSIFICATION_TYPE = U
NORAD_CAT_ID   = 28480
ELEMENT_SET_NO = 999
REV_AT_EPOCH   = 10826
BSTAR          = .76233E-4
MEAN_MOTION_DOT = .165E-5
MEAN_MOTION_DDOT = 0

CCSDS_OMM_VERS = 2.0
CREATION_DATE  = 
ORIGINATOR     = 

OBJECT_NAME    = ARIANE 5 R/B
OBJECT_ID      = 2004-049H
CENTER_NAME    = EARTH
REF_FRAME      = TEME
TIME_SYSTEM    = UTC
MEAN_ELEMENT_THEORY = SGP/SGP4

EPOCH          = 2026-03-07T17:54:44.941536
MEAN_MOTION    = 14.85262049
ECCENTRICITY   = .00840744
INCLINATION    = 98.2623
RA_OF_ASC_NODE = 235.1307
ARG_OF_PERICENTER = 358.2468
MEAN_ANOMALY   = 1.8438

EPHEMERIS_TYPE = 0
CLASSIFICATION_TYPE = U
NORAD_CAT_ID   = 28499
ELEMENT_SET_NO = 999
REV_AT_EPOCH   = 14550
BSTAR          = .12808431E-3
MEAN_MOTION_DOT = .1106E-4
MEAN_MOTION_DDOT = 0

CCSDS_OMM_VERS = 2.0
CREATION_DATE  = 
ORIGINATOR     = 

OBJECT_NAME    = CZ-2D R/B
OBJECT_ID      = 2005-024B
CENTER_NAME    = EARTH
REF_FRAME      = TEME
TIME_SYSTEM    = UTC
MEAN_ELEMENT_THEORY = SGP/SGP4

EPOCH          = 2026-03-07T14:13:25.429152
MEAN_MOTION    = 15.59917425
ECCENTRICITY   = .0006208
INCLINATION    = 97.3596
RA_OF_ASC_NODE = 81.6618
ARG_OF_PERICENTER = 52.1217
MEAN_ANOMALY   = 308.0601

EPHEMERIS_TYPE = 0
CLASSIFICATION_TYPE = U
NORAD_CAT_ID   = 28738
ELEMENT_SET_NO = 999
REV_AT_EPOCH   = 13945
BSTAR          = .68598E-3
MEAN_MOTION_DOT = .55454E-3
MEAN_MOTION_DDOT = 0

CCSDS_OMM_VERS = 2.0
CREATION_DATE  = 
ORIGINATOR     = 

OBJECT_NAME    = ALOS (DAICHI)
OBJECT_ID      = 2006-002A
CENTER_NAME    = EARTH
REF_FRAME      = TEME
TIME_SYSTEM    = UTC
MEAN_ELEMENT_THEORY = SGP/SGP4

EPOCH          = 2026-03-07T19:13:27.410016
MEAN_MOTION    = 14.69803958
ECCENTRICITY   = .0001
INCLINATION    = 98.1218
RA_OF_ASC_NODE = 22.7660
ARG_OF_PERICENTER = 56.3663
MEAN_ANOMALY   = 303.7638

EPHEMERIS_TYPE = 0
CLASSIFICATION_TYPE = U
NORAD_CAT_ID   = 28931
ELEMENT_SET_NO = 999
REV_AT_EPOCH   = 7320
BSTAR          = .37596746E-3
MEAN_MOTION_DOT = .2195E-4
MEAN_MOTION_DDOT = 0

